STARLINK-4289           
1 53024U 22076AQ  26068.53206859 -.00001656  00000+0 -85945-4 0  9995
2 53024  53.2167  84.8281 0001679  80.9670 279.1512 15.08844956202960
PRSC-S1                 
1 65055U 25164A   26068.60758212  .00007316  00000+0  46631-3 0  9991
2 65055  41.1290 129.3637 0004466 348.3012  11.7698 15.08919510 33403
